NORAD_CAT_ID,OBJECT_NAME,OBJECT_TYPE,EPOCH,MEAN_MOTION,ECCENTRICITY,INCLINATION,RA_OF_ASC_NODE,ARG_OF_PERICENTER,MEAN_ANOMALY,BSTAR,MEAN_MOTION_DOT,MEAN_MOTION_DDOT,TLE_LINE0,TLE_LINE1,TLE_LINE2,SEMIMAJOR_AXIS,PERIOD,APOGEE,PERIGEE,DECAYED
55309.0,STARLINK-5315,PAYLOAD,2024-08-11 17:13:19,14.98326027,0.0002487,70.0036,14.3026,250.2887,109.8004,9.2894e-05,1.016e-05,0.0,0 STARLINK-5315,1 55309U 23010AS  24224.71758226  .00001016  00000-0  92894-4 0  9994,2 55309  70.0036  14.3026 0002487 250.2887 109.8004 14.98326027 87334,6950.205,96.107,573.799,570.342,0.0
55309.0,STARLINK-5315,PAYLOAD,2024-08-11 20:25:34,14.98332837,0.0002785,70.0019,13.9633,264.3058,95.7783,4.068e-05,3.92e-06,0.0,0 STARLINK-5315,1 55309U 23010AS  24224.85109907  .00000392  00000-0  40680-4 0  9997,2 55309  70.0019  13.9633 0002785 264.3058  95.7783 14.98332837 87660,6950.184,96.107,573.985,570.113,0.0
55309.0,STARLINK-5315,PAYLOAD,2024-08-12 02:50:06,14.98373788,0.0002711,70.0045,13.2892,274.0343,86.0506,-0.0007838,-9.443e-05,0.0,0 STARLINK-5315,1 55309U 23010AS  24225.11812542 -.00009443  00000-0 -78380-3 0  9998,2 55309  70.0045  13.2892 0002711 274.0343  86.0506 14.98373788 87399,6950.057,96.104,573.807,570.038,0.0
55309.0,STARLINK-5315,PAYLOAD,2024-08-12 09:14:39,14.98333284,0.0002727,70.002,12.6146,269.7028,90.3818,6.8825e-05,7.28e-06,0.0,0 STARLINK-5315,1 55309U 23010AS  24225.38517732  .00000728  00000-0  68825-4 0  9999,2 55309  70.0020  12.6146 0002727 269.7028  90.3818 14.98333284 87431,6950.183,96.107,573.943,570.152,0.0
55309.0,STARLINK-5315,PAYLOAD,2024-08-12 20:27:34,14.98353468,0.0002297,70.0026,11.4396,267.4206,92.669,0.00020285,2.33e-05,0.0,0 STARLINK-5315,1 55309U 23010AS  24225.85247895  .00002330  00000-0  20285-3 0  9999,2 55309  70.0026  11.4396 0002297 267.4206  92.6690 14.98353468 87817,6950.12,96.105,573.582,570.389,0.0
55309.0,STARLINK-5315,PAYLOAD,2024-08-13 09:16:43,14.98286113,0.0002748,70.0037,10.0902,270.2444,89.84,-0.00043643,-5.29e-05,0.0,0 STARLINK-5315,1 55309U 23010AS  24226.38661665 -.00005290  00000-0 -43643-3 0  9996,2 55309  70.0037  10.0902 0002748 270.2444  89.8400 14.98286113 87587,6950.329,96.11,574.104,570.284,0.0
55309.0,STARLINK-5315,PAYLOAD,2024-08-13 20:29:40,14.98288444,0.0002643,70.005,8.913,266.2305,93.8552,-0.0003673,-4.468e-05,0.0,0 STARLINK-5315,1 55309U 23010AS  24226.85394446 -.00004468  00000-0 -36730-3 0  9993,2 55309  70.0050   8.9130 0002643 266.2305  93.8552 14.98288444 87656,6950.321,96.11,574.023,570.349,0.0
55309.0,STARLINK-5315,PAYLOAD,2024-08-14 14:07:00,14.98384505,0.0006406,70.0016,7.0602,318.9732,41.0944,0.00096796,0.00011495,0.0,0 STARLINK-5315,1 55309U 23010AS  24227.58820382  .00011495  00000-0  96796-3 0  9991,2 55309  70.0016   7.0602 0006406 318.9732  41.0944 14.98384505 88074,6950.024,96.104,576.342,567.437,0.0
55309.0,STARLINK-5315,PAYLOAD,2024-08-14 18:55:28,14.98347415,0.000305,70.0014,6.5556,277.8539,82.2274,-6.4739e-05,-8.66e-06,0.0,0 STARLINK-5315,1 55309U 23010AS  24227.78852006 -.00000866  00000-0 -64739-4 0  9996,2 55309  70.0014   6.5556 0003050 277.8539  82.2274 14.98347415 87794,6950.139,96.106,574.124,569.884,0.0
55309.0,STARLINK-5315,PAYLOAD,2024-08-15 15:45:17,14.98062849,0.0002636,70.001,4.3692,319.029,41.067,0.0051983,0.00062053,0.0,0 STARLINK-5315,1 55309U 23010AS  24228.65644912  .00062053  00000-0  51983-2 0  9997,2 55309  70.0010   4.3692 0002636 319.0290  41.0670 14.98062849 87922,6951.019,96.124,574.716,571.052,0.0
55309.0,STARLINK-5315,PAYLOAD,2024-08-15 22:09:44,14.98399855,0.0006343,70.0014,3.6962,269.5914,90.4518,-0.00055434,-6.716e-05,0.0,0 STARLINK-5315,1 55309U 23010AS  24228.92343008 -.00006716  00000-0 -55434-3 0  9991,2 55309  70.0014   3.6962 0006343 269.5914  90.4518 14.98399855 88277,6949.977,96.103,576.25,567.434,0.0
55309.0,STARLINK-5315,PAYLOAD,2024-08-16 02:58:07,14.98513576,0.0002803,70.002,3.189,319.2837,40.8112,-0.0036596,-0.00043694,0.0,0 STARLINK-5315,1 55309U 23010AS  24229.12370317 -.00043694  00000-0 -36596-2 0  9990,2 55309  70.0020   3.1890 0002803 319.2837  40.8112 14.98513576 87987,6949.625,96.095,573.438,569.542,0.0
55309.0,STARLINK-5315,PAYLOAD,2024-08-16 09:22:52,14.97445529,0.0005457,70.0018,2.5164,338.4135,21.6793,0.015615,0.00186994,0.0,0 STARLINK-5315,1 55309U 23010AS  24229.39088672  .00186994  00000-0  15615-1 0  9996,2 55309  70.0018   2.5164 0005457 338.4135  21.6793 14.97445529 88033,6952.929,96.164,578.589,571.0,0.0
55309.0,STARLINK-5315,PAYLOAD,2024-08-16 22:00:01,14.98337202,0.0003243,70.0027,1.19,271.5807,44.4641,-0.0023117,-0.00027573,0.0,0 STARLINK-5315,1 55309U 23010AS  24229.91668981 -.00027573  00000-0 -23117-2 0  9997,2 55309  70.0027   1.1900 0003243 271.5807  44.4641 14.98337202 88102,6950.171,96.107,574.29,569.782,0.0
55309.0,STARLINK-5315,PAYLOAD,2024-08-17 03:00:10,14.98383978,0.000335,70.0031,0.6639,256.8176,103.2609,-0.00081827,-9.857e-05,0.0,0 STARLINK-5315,1 55309U 23010AS  24230.12512382 -.00009857  00000-0 -81827-3 0  9993,2 55309  70.0031   0.6639 0003350 256.8176 103.2609 14.98383978 88136,6950.026,96.104,574.219,569.563,0.0
55309.0,STARLINK-5315,PAYLOAD,2024-08-17 07:48:36,14.98384872,0.0003643,70.0044,0.1589,264.1088,95.9656,-0.00075148,-9.061e-05,0.0,0 STARLINK-5315,1 55309U 23010AS  24230.32541946 -.00009061  00000-0 -75148-3 0  9999,2 55309  70.0044   0.1589 0003643 264.1088  95.9656 14.98384872 88164,6950.023,96.103,574.42,569.356,0.0
55309.0,STARLINK-5315,PAYLOAD,2024-08-18 12:39:01,14.98300574,0.0003053,70.0023,357.1312,260.7775,99.3038,0.00074904,8.849e-05,0.0,0 STARLINK-5315,1 55309U 23010AS  24231.52710593  .00008849  00000-0  74904-3 0  9998,2 55309  70.0023 357.1312 0003053 260.7775  99.3038 14.98300574 88349,6950.284,96.109,574.271,570.027,0.0
55309.0,STARLINK-5315,PAYLOAD,2024-08-18 19:03:32,14.98338817,0.0002648,70.0032,356.4585,252.1627,107.9243,7.5473e-05,8.08e-06,0.0,0 STARLINK-5315,1 55309U 23010AS  24231.79413112  .00000808  00000-0  75473-4 0  9994,2 55309  70.0032 356.4585 0002648 252.1627 107.9243 14.98338817 88382,6950.166,96.106,573.871,570.19,0.0
55309.0,STARLINK-5315,PAYLOAD,2024-08-19 09:28:46,14.98327423,0.0002598,70.0045,354.9447,240.1942,119.8959,6.7141e-05,7.08e-06,0.0,0 STARLINK-5315,1 55309U 23010AS  24232.39497775  .00000708  00000-0  67141-4 0  9990,2 55309  70.0045 354.9447 0002598 240.1942 119.8959 14.98327423 88474,6950.201,96.107,573.872,570.26,0.0
55309.0,STARLINK-5315,PAYLOAD,2024-08-19 14:17:10,14.9832134,0.0003009,70.0034,354.4341,255.2172,104.8654,3.8858e-05,3.71e-06,0.0,0 STARLINK-5315,1 55309U 23010AS  24232.59526278  .00000371  00000-0  38858-4 0  9992,2 55309  70.0034 354.4341 0003009 255.2172 104.8654 14.98321340 88827,6950.22,96.108,574.176,569.993,0.0
55309.0,STARLINK-5315,PAYLOAD,2024-08-19 19:05:35,14.98323202,0.0002556,70.0034,353.9329,254.7464,105.3412,-5.6597e-05,-7.68e-06,0.0,0 STARLINK-5315,1 55309U 23010AS  24232.79554506 -.00000768  00000-0 -56597-4 0  9991,2 55309  70.0034 353.9329 0002556 254.7464 105.3412 14.98323202 88536,6950.214,96.107,573.855,570.302,0.0
55309.0,STARLINK-5315,PAYLOAD,2024-08-20 01:30:06,14.98330064,0.000289,70.0025,353.2602,269.1384,90.9444,4.9461e-07,-8.7e-07,0.0,0 STARLINK-5315,1 55309U 23010AS  24233.06258018 -.00000087  00000-0  49461-6 0  9998,2 55309  70.0025 353.2602 0002890 269.1384  90.9444 14.98330064 88577,6950.193,96.107,574.066,570.049,0.0
55309.0,STARLINK-5315,PAYLOAD,2024-08-20 14:19:10,14.98337043,0.0003092,70.0014,351.913,269.9247,90.1558,8.0573e-05,8.69e-06,0.0,0 STARLINK-5315,1 55309U 23010AS  24233.59665336  .00000869  00000-0  80573-4 0  9995,2 55309  70.0014 351.9130 0003092 269.9247  90.1558 14.98337043 88973,6950.171,96.107,574.185,569.887,0.0
55309.0,STARLINK-5315,PAYLOAD,2024-08-20 17:31:26,14.98342217,0.0003045,70.0015,351.5767,272.2642,87.8168,0.00012317,1.377e-05,0.0,0 STARLINK-5315,1 55309U 23010AS  24233.73016907  .00001377  00000-0  12317-3 0  9990,2 55309  70.0015 351.5767 0003045 272.2642  87.8168 14.98342217 88676,6950.155,96.106,574.136,569.904,0.0
55309.0,STARLINK-5315,PAYLOAD,2024-08-21 12:45:04,14.98321464,0.0002754,70.0025,349.5585,262.6535,97.4311,1.0166e-06,-8.1e-07,0.0,0 STARLINK-5315,1 55309U 23010AS  24234.53130640 -.00000081  00000-0  10166-5 0  9994,2 55309  70.0025 349.5585 0002754 262.6535  97.4311 14.98321464 88793,6950.219,96.108,573.998,570.17,0.0
55309.0,STARLINK-5315,PAYLOAD,2024-08-21 14:21:12,14.98320595,0.0002786,70.0021,349.3893,263.8671,96.217,6.4181e-06,-1.6e-07,0.0,0 STARLINK-5315,1 55309U 23010AS  24234.59806704 -.00000016  00000-0  64181-5 0  9995,2 55309  70.0021 349.3893 0002786 263.8671  96.2170 14.98320595 89120,6950.222,96.108,574.023,570.151,0.0
55309.0,STARLINK-5315,PAYLOAD,2024-08-21 17:33:29,14.98320322,0.0002597,70.0026,349.0535,258.2582,101.8286,1.1913e-05,4.9e-07,0.0,0 STARLINK-5315,1 55309U 23010AS  24234.73158742  .00000049  00000-0  11913-4 0  9992,2 55309  70.0026 349.0535 0002597 258.2582 101.8286 14.98320322 89145,6950.223,96.108,573.893,570.283,0.0
